CSS (TIANHE)            
1 48274U 21035A   24024.09719036  .00029336  00000+0  32017-3 0  9991
2 48274  41.4671 249.5647 0008199 227.1847 132.8304 15.62671443156388
